Satellite: HORYU-2
Catalog number: 38340
Epoch time:      12180.87468133
Element set:      44
Inclination:      098.1743 deg
RA of node:       120.6293 deg
Eccentricity:    0.0012057
Arg of perigee:   297.8543 deg
Mean anomaly:     062.1444 deg
Mean motion:   14.70003208 rev/day
Decay rate:       5.11e-06 rev/day^2
Epoch rev:             619
Checksum:              267

/EX



From ray.hoad at mypbmail.com  Thu Jun 28 18:21:12 2012
From: ray.hoad at mypbmail.com (Ray Hoad)
Date: Thu, 28 Jun 2012 20:21:12 -0500
Subject: [keps] orb12180.2l.amsat
Message-ID: <4BDF583D10B846A5B044BAD6815E5970@ray45af0265077>

SB KEPS @ AMSAT  $ORB12180.N
2Line Orbital Elements 12180.AMSAT

HR AMSAT ORBITAL ELEMENTS FOR AMATEUR SATELLITES IN NASA FORMAT
FROM WA5QGD FORT WORTH,TX June 28, 2012
Send SUBSCRIBE KEPS/UNSUBSCRIBE KEPS to majordomo at amsat.org only
BID: ORB12180.N

DECODE 2-LINE ELSETS WITH THE FOLLOWING KEY:
1 AAAAAU 00  0  0 BBBBB.BBBBBBBB  .CCCCCCCC  00000-0  00000-0 0  DDDZ
2 AAAAA EEE.EEEE FFF.FFFF GGGGGGG HHH.HHHH III.IIII JJ.JJJJJJJJKKKKKZ
KEY: A-CATALOGNUM B-EPOCHTIME C-DECAY D-ELSETNUM E-INCLINATION F-RAAN
G-ECCENTRICITY H-ARGPERIGEE I-MNANOM J-MNMOTION K-ORBITNUM Z-CHECKSUM

TO ALL RADIO AMATEURS BT

AO-07
1 07530U 74089B   12179.59984713 -.00000027  00000-0  10000-3 0  4167
2 07530 101.4024 176.4086 0011607 262.7051 097.2699 12.53589972721350
FO-29
1 24278U 96046B   12179.83410817 -.00000044  00000-0 -81567-5 0 08889
2 24278 098.5868 279.0949 0350858 001.8865 358.3506 13.52984340783395
SO-33
1 25509U 98061B   12179.67941329  .00000136  00000-0  13486-4 0 02669
2 25509 031.4366 274.3159 0352773 295.0830 061.3578 14.28782466714157
RS-22
1 27939U 03042A   12180.41083271  .00000226  00000-0  51632-4 0  4881
2 27939 097.8122 020.6510 0012456 226.8360 133.1804 14.64050497467524
VO-52
1 28650U 05017B   12180.12044898  .00000700  00000-0  91886-4 0  1391
2 28650 097.5955 210.5400 0026830 008.0643 352.1024 14.83007221386591
HO-68
1 36122U 09072B   12180.16054872 -.00000044  00000-0  00000 0 0  5957
2 36122 100.3600 239.2857 0007874 084.5300 275.6709 13.16296461121838
UO-11
1 14781U 84021B   12179.73203756  .00000230  00000-0  36952-4 0  9050
2 14781 097.9538 239.1605 0009280 006.7938 353.3396 14.80473899521498
AO-16
1 20439U 90005D   12180.47620509  .00000028  00000-0  26286-4 0  4990
2 20439 098.4314 123.5343 0011480 122.1760 238.0537 14.32061237171616
LO-19
1 20442U 90005G   12179.86876309  .00000120  00000-0  60218-4 0 04396
2 20442 098.3962 125.9121 0012651 116.5680 243.6797 14.32279499171719
AO-27
1 22825U 93061C   12180.44528867 -.00000057  00000-0 -51684-5 0  1371
2 22825 098.5738 123.0856 0007415 245.8461 114.1954 14.29466906978087
IO-26
1 22826U 93061D   12180.44400835  .00000056  00000-0  38803-4 0  8883
2 22826 098.5697 123.4505 0007979 240.7110 119.3274 14.29741980978212
GO-32
1 25397U 98043D   12180.36446321  .00000026  00000-0  29510-4 0  8102
2 25397 098.3623 158.5229 0000318 215.7977 144.3202 14.23280696725619
NO-44
1 26931U 01043C   12179.74348262  .00000224  00000-0  11928-3 0 00752
2 26931 067.0524 093.1346 0007676 259.8587 100.1642 14.29808670560755
SO-50
1 27607U 02058C   12180.44457001  .00000263  00000-0  61054-4 0  7982
2 27607 064.5589 260.6544 0082269 246.3047 112.9406 14.72412424511620
CO-55
1 27844U 03031E   12179.55379807  .00000141  00000-0  84915-4 0  4055
2 27844 098.7031 187.7808 0009373 187.7761 172.3257 14.21034600466366
CO-57
1 27848U 03031J   12179.55925885  .00000094  00000-0  63891-4 0 03564
2 27848 098.7111 187.1252 0009063 192.9189 167.1748 14.20784602466308
AO-51
1 28375U 04025K   12180.19039760  .00000218  00000-0  78026-4 0  3029
2 28375 098.1482 144.9538 0084530 008.2218 352.0331 14.40959915420352
CP3
1 31129U 07012N   12179.54948691  .00000146  00000-0  43129-4 0 02012
2 31129 097.8790 186.7151 0102641 090.7933 270.5038 14.53093634275481
CO-65
1 32785U 08021C   12179.77011332  .00000143  00000-0  24012-4 0  3467
2 32785 097.7990 240.5720 0015341 031.2891 328.9206 14.83015413225331
PRISM
1 33493U 09002B   12180.38639719  .00001047  00000-0  13263-3 0  8293
2 33493 098.1727 321.2167 0017485 260.1402 099.7848 14.83938330185416
SOHLA-1
1 33496U 09002E   12180.33598049  .00000069  00000-0  19715-4 0  7630
2 33496 098.1047 291.9976 0007227 013.2575 346.8815 14.69983341183881
SO-67
1 35870U 09049F   12180.40988177  .00001997  00000-0  85522-4 0   893
2 35870 097.2310 215.7623 0003628 111.8584 343.9169 15.23904411154320
TISAT-1
1 36799U 10035E   12180.41382041  .00000803  00000-0  10800-3 0  1050
2 36799 098.0616 256.8307 0016036 132.9237 227.3331 14.81993405106158
STUDSAT
1 36801U 10035G   12179.92475958  .00002057  00000-0  25091-3 0 04333
2 36801 098.0740 257.1004 0014162 122.5589 237.6989 14.84403212106115
FO-69
1 37227U 0        12179.46825757  .00000166  00000-0  31335-4 0 02192
2 37227 071.9703 289.2712 0018108 298.3339 061.6016 14.77092260037611
FO-70
1 37380U 0        12179.47554455  .00000208  00000-0  37493-4 0 02230
2 37380 071.9743 289.8278 0018623 295.0880 064.8372 14.76843679037500
ALMASAT-1
1 38078U 12006B   12180.40188671  .00012016  00000-0  33239-3 0  3371
2 38078 069.4963 291.8543 0758813 234.7198 118.0673 14.09454130 19134
XATCOBEO
1 38082U 12006F   12180.41768838  .00027905  00000-0  67808-3 0  3514
2 38082 069.4955 289.7003 0736145 233.5108 119.6046 14.16750061 19185
NOAA-10
1 16969U 86073A   12179.81387686  .00000103  00000-0  59486-4 0 09789
2 16969 098.5795 208.6787 0011706 199.9976 160.0726 14.27560152341383
NOAA-11
1 19531U 88089A   12180.38802658 -.00000232  00000-0 -97417-4 0  9726
2 19531 098.7315 265.3115 0010845 188.1641 171.9375 14.14970707226096
NOAA-12
1 21263U 91032A   12179.92691770  .00000003  00000-0  19990-4 0 04697
2 21263 098.7286 201.5416 0013893 166.3394 193.8164 14.25503169098084
MET-3/5
1 21655U 91056A   12179.78447370  .00000378  00000-0  94925-3 0 00014
2 21655 082.5569 144.7018 0012123 298.2990 061.6908 13.17034715003048
MET-2/21
1 22782U 93055A   12179.71383151 -.00000008  00000-0 -20427-4 0 04570
2 22782 082.5466 024.1604 0023841 121.0052 239.3454 13.83684258950620
OKEAN-4
1 23317U 94066A   12179.95617072  .00000305  00000-0  33800-4 0 09590
2 23317 082.5396 021.1376 0020472 320.9640 039.0096 14.83820591956402
NOAA-14
1 23455U 94089A   12179.94488824 -.00000052  00000-0 -41547-5 0 09519
2 23455 098.8274 263.3089 0008706 293.0376 066.9874 14.13904971902315
NOAA-15
1 25338U 98030A   12179.86928436  .00000070  00000-0  48746-4 0 03148
2 25338 098.6907 166.6760 0011683 078.3716 281.8785 14.25086288734372
RESURS
1 25394U 98043A   12180.43100994 -.00000034  00000-0  30446-5 0  1227
2 25394 098.3195 168.0757 0001027 159.6428 200.4801 14.24289769726001
FENGYUN1
1 25730U 99025A   12180.50042908  .00000902  00000-0  53875-3 0  6373
2 25730 098.8467 139.2843 0019548 335.4205 024.6031 14.09628211676201
OKEAN-0
1 25860U 99039A   12179.91673767  .00000196  00000-0  37177-4 0 06731
2 25860 097.9366 142.3404 0000872 108.4132 251.7172 14.74226442696155
NOAA-16
1 26536U 00055A   12179.87325121  .00000236  00000-0  15162-3 0 07998
2 26536 099.0931 222.1609 0011157 057.2595 302.9616 14.12753991606545
NOAA-17
1 27453U 02032A   12179.76980766 -.00000011  00000-0  12953-4 0 07521
2 27453 098.3345 206.2716 0012577 122.7081 237.5304 14.24449813520261
NOAA-18
1 28654U 05018A   12179.76823568 -.00000001  00000-0  24344-4 0 02305
2 28654 099.0465 137.9440 0014933 122.3144 237.9476 14.11666288366056
NOAA-19
1 33591U 09005A   12179.77845785 -.00000070  00000-0 -14305-4 0 04223
2 33591 098.8639 119.4361 0014325 355.7090 004.3963 14.11352719174501
HUBBLE
1 20580U 90037B   12179.15382168  .00000666  00000-0  36404-4 0   257
2 20580 028.4684 078.3233 0003142 151.0542 209.0221 15.02575545 16230
ISS
1 25544U 98067A   12180.89865916  .00008912  00000-0  13313-3 0  8302
2 25544 051.6400 063.8440 0008358 100.3910 009.0971 15.55839748779836
CO-58
1 28895U 05043F   12179.56411465  .00000366  00000-0  84026-4 0  2112
2 28895 097.9108 045.3800 0019172 117.6708 242.6472 14.60656053355172
FALCON
1 30776U 07006E   12179.52036952  .00001269  00000-0  84402-4 0  3778
2 30776 035.4336 213.7284 0001277 108.4604 251.6251 15.07631276291817
MAST
1 31126U 07012K   12179.95707179  .00000259  00000-0  67694-4 0 04995
2 31126 097.8731 190.4275 0095038 077.1200 284.0596 14.54177465275833
CAPE1
1 31130U 07012P   12179.58886372  .00000317  00000-0  81908-4 0 05037
2 31130 097.8823 186.4561 0102916 091.3617 269.9387 14.52960476275286
COMPASS
1 32787U 08021E   12179.72234924  .00000620  00000-0  80531-4 0  3398
2 32787 097.7978 240.8243 0015921 030.1381 330.0758 14.84050775225379
AAUSAT2
1 32788U 08021F   12179.82449981  .00001026  00000-0  12823-3 0  3312
2 32788 097.8024 241.3136 0015798 030.5398 329.6678 14.84379323225417
DO-64
1 32789U 08021G   12180.19792601  .00001418  00000-0  16855-3 0  3476
2 32789 097.8105 243.7404 0015171 025.7296 334.4670 14.85899748225516
CO-66
1 32791U 08021J   12179.71612938  .00000255  00000-0  37330-4 0 03334
2 32791 097.7992 240.5525 0016235 030.1380 330.0765 14.83458241225308
RS-30
1 32953U 08025A   12179.83379813  .00000010  00000-0  00000-0 0 09080
2 32953 082.5034 288.5175 0017459 285.4771 074.4385 12.43024897185883
TACSAT-3
1 35001U 09028A   12121.72616188  .15204951  73582-5  42606-3 0 00016
2 35001 040.4259 351.8840 0007146 275.2650 085.0693 16.45157000166990
PHARMSAT
1 35002U 09028B   12179.88257777  .00117694  00000-0  40644-3 0 09551
2 35002 040.4549 358.6355 0011826 322.7559 037.2441 15.88242503176029
METEOR-M
1 35865U 09049A   12179.77509445 -.00000027  00000-0  72237-5 0 05396
2 35865 098.6540 233.9025 0003096 036.5275 323.6114 14.21864770144101
RS-38
1 35869U 09049E   12180.21683797  .00000013  00000-0  25663-4 0  5477
2 35869 098.6490 234.3293 0005202 029.4334 330.7128 14.22076153144182
JUGNU
1 37839U 11058B   12180.33590576  .00000619  00000-0  19019-3 0  1749
2 37839 019.9628 290.7146 0019060 347.7570 012.2371 14.12064068 36822
SRMSAT
1 37841U 11058D   12180.40558951  .00000264  00000-0  00000 0 0  1743
2 37841 019.9751 295.3847 0012447 312.4492 047.4860 14.10146381 36779
RAX-2
1 37853U 11061D   12179.73199085  .00001119  00000-0  98811-4 0 02207
2 37853 101.7121 224.7187 0246763 320.8583 037.4987 14.80114363035961
AUBIESAT
1 37854U 11061E   12179.88673036  .00001362  00000-0  11640-3 0 02245
2 37854 101.7142 225.2069 0246872 319.7424 038.5722 14.80506546035970
HRBE
1 37855U 11061F   12179.96901766  .00001497  00000-0  12673-3 0 02155
2 37855 101.7152 225.2814 0248014 319.6386 038.6636 14.80358982035981
RS-39
1 38051U 11062C   12180.21547743  .00003772  00000-0  16476-3 0  4645
2 38051 051.6436 107.2792 0014375 076.5288 080.3667 15.24480475 23654
E-STAR
1 38079U 12006C   12180.33239819  .00022569  00000-0  54784-3 0  3131
2 38079 069.4953 290.1947 0743362 233.8864 119.1156 14.15272477 19167
GOLIAT
1 38085U 12006J   12180.33166949  .00023281  00000-0  56511-3 0  2895
2 38085 069.4927 290.4938 0747931 234.1012 118.8385 14.14292746 19152
HORYU-2
1 38340U 12025D   12180.87468133  .00000511  00000-0  93684-4 0   442
2 38340 098.1743 120.6293 0012057 297.8543 062.1444 14.70003208  6190
/EX



From ray.hoad at mypbmail.com  Thu Jul  5 19:53:42 2012
From: ray.hoad at mypbmail.com (Ray Hoad)
Date: Thu, 5 Jul 2012 21:53:42 -0500
Subject: [keps] orb12187.amsat
Message-ID: <5E3FF3D789FF4E1A81141686DE52F2B6@ray45af0265077>

SB KEPS @ AMSAT  $ORB12187.O
Orbital Elements  12187.OSCAR

HR AMSAT ORBITAL ELEMENTS FOR OSCAR SATELLITES
FROM WA5QGD FORT WORTH,TX July 5, 2012
Send SUBSCRIBE KEPS/UNSUBSCRIBE KEPS to majordomo at amsat.org only
BID: ORB12187.O
TO ALL RADIO AMATEURS BT

